{
  "norad_id": 68646,
  "name": "QIANFAN GROUP 7 OBJECT L",
  "history": [
    {
      "epoch": "2026-04-15T14:28:31.994112Z",
      "apogee_km": 814.9726141243755,
      "perigee_km": 794.7999551922067,
      "latitude_deg": 8.103941418615328e-05,
      "longitude_deg": -93.11055317420227,
      "height_km": 817.9288177365125,
      "semi_major_axis_km": 7183.023284658291,
      "eccentricity": 0.00140419,
      "inclination_deg": 88.9909,
      "raan_deg": 327.7856,
      "arg_perigee_deg": 188.4862,
      "mean_anomaly_deg": 171.6097,
      "mean_motion_rev_day": 14.26073306
    }
  ]
}