QIANFAN GROUP 7 OBJECT L
1 68646U 26075L   26105.60314808  .00000237  00000+0  93013-4 0  9995
2 68646  88.9909 327.7856 0014041 188.4862 171.6097 14.26073306  1149
